{
  "links" : {
    "next" : "https://api.nasa.gov/neo/rest/v1/neo/browse?page=11&size=20&api_key=jqAGvNAwUIBu4fl9FSOjdm3V4F7hIglRzI6pdX9d",
    "prev" : "https://api.nasa.gov/neo/rest/v1/neo/browse?page=9&size=20&api_key=jqAGvNAwUIBu4fl9FSOjdm3V4F7hIglRzI6pdX9d",
    "self" : "https://api.nasa.gov/neo/rest/v1/neo/browse?page=10&size=20&api_key=jqAGvNAwUIBu4fl9FSOjdm3V4F7hIglRzI6pdX9d"
  },
  "page" : {
    "size" : 20,
    "total_elements" : 20750,
    "total_pages" : 1038,
    "number" : 10
  },
  "near_earth_objects" : [ {
    "links" : {
      "self" : "https://api.nasa.gov/neo/rest/v1/neo/3795099?api_key=jqAGvNAwUIBu4fl9FSOjdm3V4F7hIglRzI6pdX9d"
    },
    "neo_reference_id" : "3795099",
    "name" : "(2017 YV5)",
    "designation" : "2017 YV5",
    "nasa_jpl_url" : "http://ssd.jpl.nasa.gov/sbdb.cgi?sstr=3795099",
    "absolute_magnitude_h" : 22.9,
    "estimated_diameter" : {
      "kilometers" : {
        "estimated_diameter_min" : 0.0699125232,
        "estimated_diameter_max" : 0.1563291544
      },
      "meters" : {
        "estimated_diameter_min" : 69.9125232246,
        "estimated_diameter_max" : 156.3291544087
      },
      "miles" : {
        "estimated_diameter_min" : 0.0434416145,
        "estimated_diameter_max" : 0.097138403
      },
      "feet" : {
        "estimated_diameter_min" : 229.3718026961,
        "estimated_diameter_max" : 512.8909429502
      }
    },
    "is_potentially_hazardous_asteroid" : false,
    "close_approach_data" : [ {
      "close_approach_date" : "2017-11-13",
      "epoch_date_close_approach" : 1510560000000,
      "relative_velocity" : {
        "kilometers_per_second" : "8.0503843181",
        "kilometers_per_hour" : "28981.3835453079",
        "miles_per_hour" : "18007.9046812498"
      },
      "miss_distance" : {
        "astronomical" : "0.1554595039",
        "lunar" : "60.4737472534",
        "kilometers" : "23256412",
        "miles" : "14450864"
      },
      "orbiting_body" : "Earth"
    } ],
    "orbital_data" : {
      "orbit_id" : "3",
      "orbit_determination_date" : "2018-01-14 06:59:46",
      "first_observation_date" : "2017-12-24",
      "last_observation_date" : "2018-01-10",
      "data_arc_in_days" : 17,
      "observations_used" : 31,
      "orbit_uncertainty" : "8",
      "minimum_orbit_intersection" : ".0445147",
      "jupiter_tisserand_invariant" : "4.651",
      "epoch_osculation" : "2458113.5",
      "eccentricity" : ".3928186545059172",
      "semi_major_axis" : "1.405061997611629",
      "inclination" : "7.260441801211627",
      "ascending_node_longitude" : "159.4007332821664",
      "orbital_period" : "608.3333954024091",
      "perihelion_distance" : ".8531274342124329",
      "perihelion_argument" : "221.7269118637182",
      "aphelion_distance" : "1.956996561010826",
      "perihelion_time" : "2458048.257360588343",
      "mean_anomaly" : "38.60933883575431",
      "mean_motion" : ".5917807615376138",
      "equinox" : "J2000",
      "orbit_class" : {
        "orbit_class_type" : "APO",
        "orbit_class_range" : "a (semi-major axis) > 1.0 AU; q (perihelion) < 1.017 AU",
        "orbit_class_description" : "Near-Earth asteroid orbits which cross the Earth’s orbit similar to that of 1862 Apollo"
      }
    },
    "is_sentry_object" : false
  }, {
    "links" : {
      "self" : "https://api.nasa.gov/neo/rest/v1/neo/3795151?api_key=jqAGvNAwUIBu4fl9FSOjdm3V4F7hIglRzI6pdX9d"
    },
    "neo_reference_id" : "3795151",
    "name" : "(2017 YE8)",
    "designation" : "2017 YE8",
    "nasa_jpl_url" : "http://ssd.jpl.nasa.gov/sbdb.cgi?sstr=3795151",
    "absolute_magnitude_h" : 25.5,
    "estimated_diameter" : {
      "kilometers" : {
        "estimated_diameter_min" : 0.0211132445,
        "estimated_diameter_max" : 0.0472106499
      },
      "meters" : {
        "estimated_diameter_min" : 21.113244479,
        "estimated_diameter_max" : 47.2106498806
      },
      "miles" : {
        "estimated_diameter_min" : 0.0131191578,
        "estimated_diameter_max" : 0.0293353287
      },
      "feet" : {
        "estimated_diameter_min" : 69.2691770164,
        "estimated_diameter_max" : 154.8905885541
      }
    },
    "is_potentially_hazardous_asteroid" : false,
    "close_approach_data" : [ {
      "close_approach_date" : "2014-07-09",
      "epoch_date_close_approach" : 1404889200000,
      "relative_velocity" : {
        "kilometers_per_second" : "14.4098589917",
        "kilometers_per_hour" : "51875.4923701398",
        "miles_per_hour" : "32233.413578546"
      },
      "miss_distance" : {
        "astronomical" : "0.0510108048",
        "lunar" : "19.8432044983",
        "kilometers" : "7631108",
        "miles" : "4741750.5"
      },
      "orbiting_body" : "Earth"
    }, {
      "close_approach_date" : "2017-12-22",
      "epoch_date_close_approach" : 1513929600000,
      "relative_velocity" : {
        "kilometers_per_second" : "13.5221336572",
        "kilometers_per_hour" : "48679.6811658282",
        "miles_per_hour" : "30247.6607777336"
      },
      "miss_distance" : {
        "astronomical" : "0.0258931091",
        "lunar" : "10.0724191666",
        "kilometers" : "3873554",
        "miles" : "2406914.75"
      },
      "orbiting_body" : "Earth"
    }, {
      "close_approach_date" : "2019-06-13",
      "epoch_date_close_approach" : 1560409200000,
      "relative_velocity" : {
        "kilometers_per_second" : "9.1531060387",
        "kilometers_per_hour" : "32951.181739383",
        "miles_per_hour" : "20474.5828980072"
      },
      "miss_distance" : {
        "astronomical" : "0.092003238",
        "lunar" : "35.7892608643",
        "kilometers" : "13763489",
        "miles" : "8552236"
      },
      "orbiting_body" : "Venus"
    } ],
    "orbital_data" : {
      "orbit_id" : "3",
      "orbit_determination_date" : "2018-02-04 07:23:30",
      "first_observation_date" : "2017-12-29",
      "last_observation_date" : "2018-01-15",
      "data_arc_in_days" : 17,
      "observations_used" : 24,
      "orbit_uncertainty" : "8",
      "minimum_orbit_intersection" : ".00360235",
      "jupiter_tisserand_invariant" : "4.737",
      "epoch_osculation" : "2458131.5",
      "eccentricity" : ".4572895977200189",
      "semi_major_axis" : "1.353279515807909",
      "inclination" : "10.49798215581794",
      "ascending_node_longitude" : "93.59485164799874",
      "orbital_period" : "575.0156819064587",
      "perihelion_distance" : ".7344388704213684",
      "perihelion_argument" : "279.8466205700515",
      "aphelion_distance" : "1.97212016119445",
      "perihelion_time" : "2458058.666008558909",
      "mean_anomaly" : "45.59916841199848",
      "mean_motion" : ".626069881792482",
      "equinox" : "J2000",
      "orbit_class" : {
        "orbit_class_type" : "APO",
        "orbit_class_range" : "a (semi-major axis) > 1.0 AU; q (perihelion) < 1.017 AU",
        "orbit_class_description" : "Near-Earth asteroid orbits which cross the Earth’s orbit similar to that of 1862 Apollo"
      }
    },
    "is_sentry_object" : true,
    "sentry_data" : "https://api.nasa.gov/neo/rest/v1/neo/sentry/3795151?api_key=jqAGvNAwUIBu4fl9FSOjdm3V4F7hIglRzI6pdX9d"
  } ]
}